{
"type": "FeatureCollection",
"name": "nyborg_dk",
"crs": { "type": "name", "properties": { "name": "urn:ogc:def:crs:OGC:1.3:CRS84" } },
"features": [
{"type":"Feature","properties":{"id":"12337669-c046-6b98-e053-d480220a5a3f","skrivemaade":"Nyborg","skrivemaade_officiel":"Nyborg","skrivemaade_uofficiel":null,"visningstekst":"Nyborg (By i Nyborg Kommune)","stednavn_type":"bebyggelse","stednavn_subtype":"by","kommunekode":"0450","bbox":"POLYGON ((610573.04 6129184.67, 610573.04 6135734.88, 616164.36 6135734.88, 616164.36 6129184.67, 610573.04 6129184.67))"},"geometry":{"type":"Polygon","coordinates":[[[10.795281974813117,55.334266822975565],[10.795022364661486,55.332745510675323],[10.799548912649801,55.330838008475226],[10.802688917167085,55.328293188165567],[10.803434098259089,55.328456277134606],[10.803261456770713,55.329806052219389],[10.804022078203364,55.330814813486924],[10.80593611361712,55.33225913533979],[10.808236633193021,55.33253490466425],[10.808466920459731,55.328965432213081],[10.812910336964269,55.316769734073858],[10.8133970691208,55.316771226416691],[10.815732249726864,55.313772621992207],[10.817383145810751,55.310627949892066],[10.817792924869297,55.310309533890134],[10.818739437259564,55.310573966289589],[10.819685945539886,55.309575370331544],[10.818453467476278,55.309180210645842],[10.823748420527773,55.30629695370606],[10.824659893032566,55.306269587453023],[10.829865273770734,55.302570963773519],[10.828860499469185,55.302184810308887],[10.824238030718632,55.304397308071351],[10.819490747454587,55.30594928230807],[10.818478747705365,55.305249934905007],[10.817641142182049,55.302737619381219],[10.817806674341275,55.300363427206079],[10.815541466820326,55.298634845741709],[10.817544739151629,55.297012357294548],[10.815078603136026,55.295577236821948],[10.811240991606269,55.296626269351712],[10.813853061143337,55.298237072850604],[10.813425350922454,55.298384889692763],[10.812552765921227,55.298048678576485],[10.80753073287014,55.299444560710661],[10.80771339157956,55.300499331709339],[10.807164667419999,55.300685676653899],[10.806479273015796,55.300156205749133],[10.806968671654557,55.300740614956176],[10.8059660250953,55.301036667771413],[10.806063678754434,55.301552816141054],[10.805341620753765,55.301745670677846],[10.804627359956045,55.301222188540621],[10.805251578786981,55.301809644988744],[10.805143283961952,55.303018721949542],[10.797198865010458,55.305680985677341],[10.796141307211515,55.303978669766067],[10.795955392856746,55.304979018999681],[10.794677280057774,55.303425262448378],[10.794850741597834,55.304855593448345],[10.794032950270639,55.303980811680738],[10.793837114509,55.304252954582353],[10.795248109859235,55.30745784044781],[10.793029284995834,55.309715835025827],[10.791939975974088,55.309771098320184],[10.791693612826279,55.308979588044032],[10.79001798229015,55.309048108199491],[10.789795497719728,55.307260608343149],[10.79055930068027,55.306325945425975],[10.791901590114264,55.306173691621822],[10.789627801007533,55.306017487186438],[10.790157503926121,55.30478993863008],[10.788711491086813,55.305248099797026],[10.788225839160823,55.306366787015584],[10.787929363136035,55.308122163352877],[10.788983316196681,55.308384892117644],[10.787276512631312,55.308190767274397],[10.786205574225733,55.306308994192193],[10.786588494496591,55.30626124149336],[10.786259272936407,55.304475207363801],[10.786896159820571,55.303982811421513],[10.789013623793995,55.303752556329428],[10.78978759103315,55.304534902549875],[10.789133836015784,55.302947761032087],[10.789948953544819,55.301383941936599],[10.78913745740401,55.300672968292908],[10.789006043380766,55.298418308015663],[10.787723010418931,55.298751212365531],[10.784437241646041,55.300710735678805],[10.781797456944442,55.300162757588666],[10.779955389843725,55.300998856412363],[10.777092486188321,55.301287259535805],[10.777378757325437,55.301693012802851],[10.773959119651927,55.3029148852807],[10.771993723816083,55.3024366158254],[10.770339731827509,55.299388413873174],[10.769412724511094,55.299530999890045],[10.769403835946912,55.299862137668669],[10.76812483153155,55.299365950564017],[10.766040831200849,55.299428373058632],[10.765766073063919,55.299789418851901],[10.766263412596102,55.300335764964217],[10.768072769011065,55.299697084176003],[10.768586722726825,55.300701092618276],[10.769662635153699,55.300533886601002],[10.770157399202457,55.301303953008791],[10.767994552060701,55.301813060281852],[10.760273951803953,55.300457930014495],[10.759818520640202,55.300738881488144],[10.760940469642485,55.302975326050351],[10.75851375420647,55.303485911317736],[10.759364488251135,55.304706467667366],[10.758053654339834,55.304670252283238],[10.75821907417351,55.30532889821945],[10.757259573016441,55.305538814807029],[10.7572365313892,55.305983306323306],[10.755040879353016,55.304114393419013],[10.756209287744603,55.303705383681098],[10.755656556914126,55.302716083306805],[10.754198664471387,55.303212021105928],[10.754702760593798,55.304124554776024],[10.750758264451324,55.306431084474333],[10.749669625513892,55.305677630876175],[10.748419775071357,55.305914285418915],[10.749531832364145,55.30716783513946],[10.743545264298536,55.310701655620974],[10.742151383385581,55.311068281326676],[10.742975313996375,55.311714315064222],[10.746142381532248,55.311053257985257],[10.746594409798647,55.313339106042648],[10.748265263755846,55.315827747307551],[10.74579619825885,55.317271482197995],[10.746572037084238,55.318224471077286],[10.752300103835264,55.316602792664618],[10.752454611028499,55.31700788629059],[10.75139368146683,55.31730494936599],[10.752035558439372,55.318061922139023],[10.753245683860849,55.317749051264776],[10.754897211838603,55.319697446247496],[10.75386715928504,55.320027519910653],[10.754015557678038,55.320236503717112],[10.75573409660713,55.319500997548019],[10.760901738529999,55.319703690655352],[10.763480565308534,55.318234875592431],[10.763080984645406,55.317775543615937],[10.764493182035883,55.316791336682883],[10.765285480832274,55.312959051411404],[10.770375012786698,55.311642720153827],[10.770148495679432,55.311367480904963],[10.771110517059158,55.311418300204473],[10.770912193975963,55.310953108627963],[10.772529177560102,55.311040467026523],[10.775678185716872,55.314531744881911],[10.775333976490181,55.31586033366068],[10.776401709949948,55.315765988934444],[10.776813773447863,55.316934747711834],[10.774251053875766,55.31747062614366],[10.771752723987964,55.319649412709602],[10.775798644878567,55.319919689425902],[10.776028576829965,55.319594954543753],[10.776136990078696,55.319869383247294],[10.776723139495163,55.319805945098764],[10.776371935101199,55.320030347418516],[10.777809555100909,55.320056256237741],[10.775288525628877,55.321289244818644],[10.779315731158952,55.324564009267959],[10.782034558498022,55.323469246485942],[10.78160813772695,55.323053594781193],[10.78283893699977,55.323139711831018],[10.785715912278457,55.321941807335136],[10.792165765530632,55.325077358752289],[10.793753767027802,55.32623653408664],[10.788693371553144,55.328437983705562],[10.78723748156839,55.333739072512415],[10.790568466388379,55.333553687026367],[10.794669581311908,55.332778285319733],[10.794457767970396,55.33354398452898],[10.790145524686753,55.334292993367029],[10.787111339153117,55.334376241877422],[10.785481850552806,55.340500036186533],[10.783224726825557,55.342772403281309],[10.785563699432638,55.343454813553961],[10.785821891568979,55.344524321551887],[10.784711085033715,55.345451968884205],[10.789159650878162,55.346326278740399],[10.791600666894377,55.347413853514141],[10.795125740475356,55.347278802402691],[10.794890570854797,55.347547027795081],[10.795553528653954,55.347659876526002],[10.795727709056397,55.349023680813822],[10.794487878610836,55.348895848837216],[10.794365288079742,55.349296063198523],[10.793293413296359,55.349003798575275],[10.792843462057727,55.349378167983652],[10.79249673844855,55.349084062316798],[10.792093903275038,55.349523975262208],[10.791522838613902,55.349361317990443],[10.791165440096124,55.349976446028954],[10.789653800222942,55.35037247287287],[10.789606262516626,55.350752259706937],[10.788654271702796,55.350736629701146],[10.78865925689102,55.351134071511972],[10.789599412207112,55.351163356059537],[10.789673489358986,55.350826410189448],[10.791581415357097,55.350948362376151],[10.789118024814847,55.354496838472144],[10.790258322714065,55.354813572476914],[10.789806280618901,55.354213721353453],[10.790902277950808,55.352504608520647],[10.791935097746331,55.351920112329829],[10.791136374008543,55.351844554357754],[10.791737122122525,55.351029213290396],[10.794156897608852,55.351098502066954],[10.79350880764571,55.351992561357768],[10.794068267204505,55.352162659856752],[10.793158017525757,55.353353916070077],[10.793963475801958,55.353497397219805],[10.79584773366142,55.35035116238187],[10.797066050122222,55.349550263276754],[10.801197573612347,55.344738203571623],[10.800260225227795,55.34453128561362],[10.799973919750206,55.343771927761765],[10.796699269203122,55.341638955752366],[10.799178216310974,55.337303764698866],[10.798684097016872,55.336167023607118],[10.797140695502669,55.336179221563533],[10.797143577774063,55.334239452102565],[10.795281974813117,55.334266822975565]]]}}
]
}
