{
"type": "FeatureCollection",
"name": "podgorica_me",
"crs": { "type": "name", "properties": { "name": "urn:ogc:def:crs:OGC:1.3:CRS84" } },
"features": [
{ "type": "Feature", "properties": { }, "geometry": { "type": "Polygon", "coordinates": [ [ [ 19.1817483, 42.4588762 ], [ 19.1820558, 42.4582803 ], [ 19.1824197, 42.4578009 ], [ 19.1826779, 42.4576978 ], [ 19.1831447, 42.4576203 ], [ 19.1836244, 42.4575413 ], [ 19.184421, 42.457156 ], [ 19.1872875, 42.4563346 ], [ 19.1887551, 42.4558246 ], [ 19.1911924, 42.4552341 ], [ 19.1930752, 42.4546683 ], [ 19.1949097, 42.4540659 ], [ 19.1967547, 42.4531801 ], [ 19.1970976, 42.4530173 ], [ 19.1975403, 42.4526798 ], [ 19.1985434, 42.4514827 ], [ 19.1988933, 42.4511059 ], [ 19.1995553, 42.4506479 ], [ 19.2013686, 42.4492513 ], [ 19.2026019, 42.448051 ], [ 19.2027897, 42.4477774 ], [ 19.2031468, 42.446875 ], [ 19.2038139, 42.4453574 ], [ 19.2032622, 42.4452198 ], [ 19.2035244, 42.4448792 ], [ 19.2036778, 42.4446944 ], [ 19.2037009, 42.4441276 ], [ 19.2038338, 42.4437001 ], [ 19.2035697, 42.4433941 ], [ 19.2030452, 42.4430635 ], [ 19.2025649, 42.4428115 ], [ 19.202448, 42.4430139 ], [ 19.2018468, 42.4427762 ], [ 19.1995573, 42.4425958 ], [ 19.1986869, 42.4424053 ], [ 19.1980878, 42.4421874 ], [ 19.1978174, 42.4419259 ], [ 19.1975728, 42.4415617 ], [ 19.197414, 42.4411851 ], [ 19.1973103, 42.4407765 ], [ 19.1967135, 42.4403294 ], [ 19.196669, 42.4400835 ], [ 19.1955386, 42.4389201 ], [ 19.1952358, 42.4387723 ], [ 19.194516, 42.4385807 ], [ 19.1942439, 42.4386153 ], [ 19.1939957, 42.4385777 ], [ 19.1936179, 42.4385854 ], [ 19.1930671, 42.4385259 ], [ 19.1923051, 42.4384768 ], [ 19.192209, 42.4386793 ], [ 19.1915714, 42.4384827 ], [ 19.1910948, 42.4383497 ], [ 19.1900598, 42.437647 ], [ 19.1896747, 42.4373381 ], [ 19.1895065, 42.4371636 ], [ 19.1893558, 42.4368708 ], [ 19.1892471, 42.4366627 ], [ 19.1893327, 42.436284 ], [ 19.1893819, 42.4360429 ], [ 19.1897751, 42.4357436 ], [ 19.189928, 42.4355197 ], [ 19.19004, 42.4353786 ], [ 19.1901191, 42.4351959 ], [ 19.1904378, 42.4347969 ], [ 19.1900372, 42.4345896 ], [ 19.1898551, 42.4343712 ], [ 19.1897949, 42.4340563 ], [ 19.1899213, 42.4340189 ], [ 19.1898578, 42.4336217 ], [ 19.1893944, 42.4332153 ], [ 19.1892305, 42.4328901 ], [ 19.1890665, 42.4326878 ], [ 19.1889039, 42.4322212 ], [ 19.188875, 42.4320366 ], [ 19.1885841, 42.4314689 ], [ 19.1878511, 42.4309984 ], [ 19.187646, 42.4306707 ], [ 19.187565, 42.4304929 ], [ 19.1875445, 42.4302459 ], [ 19.1876189, 42.4300315 ], [ 19.187672, 42.4299008 ], [ 19.1877703, 42.429795 ], [ 19.1879123, 42.4297563 ], [ 19.1881215, 42.4294082 ], [ 19.1884282, 42.4287094 ], [ 19.1885504, 42.4281745 ], [ 19.1885581, 42.4279796 ], [ 19.1884635, 42.4278315 ], [ 19.1883437, 42.4277823 ], [ 19.188115, 42.427784 ], [ 19.1876344, 42.4279549 ], [ 19.1876483, 42.4280123 ], [ 19.1876352, 42.428049 ], [ 19.1875948, 42.4280886 ], [ 19.1861703, 42.4285222 ], [ 19.1862502, 42.4283301 ], [ 19.1861165, 42.4281499 ], [ 19.1858702, 42.4279938 ], [ 19.185572, 42.4277853 ], [ 19.1851389, 42.4271629 ], [ 19.1852075, 42.4268056 ], [ 19.1856212, 42.4264046 ], [ 19.1868414, 42.4256605 ], [ 19.1867682, 42.4251282 ], [ 19.1868154, 42.4248515 ], [ 19.1869874, 42.4247424 ], [ 19.1871259, 42.4248087 ], [ 19.1879189, 42.4243055 ], [ 19.1885557, 42.4240539 ], [ 19.1894505, 42.4237338 ], [ 19.1901468, 42.4237177 ], [ 19.1909464, 42.4238353 ], [ 19.1930031, 42.4240105 ], [ 19.1935079, 42.4240316 ], [ 19.1942786, 42.4238853 ], [ 19.1956558, 42.4234253 ], [ 19.1964314, 42.4230423 ], [ 19.1968746, 42.4227126 ], [ 19.1974547, 42.4218229 ], [ 19.198349, 42.4207075 ], [ 19.1988704, 42.4202217 ], [ 19.1993979, 42.4190042 ], [ 19.1994383, 42.4165262 ], [ 19.1986536, 42.4144841 ], [ 19.1969206, 42.4129155 ], [ 19.1951204, 42.4111542 ], [ 19.1947874, 42.4107875 ], [ 19.1944622, 42.4102764 ], [ 19.1941359, 42.4090998 ], [ 19.1940895, 42.4088241 ], [ 19.195389, 42.4087788 ], [ 19.1958453, 42.4088473 ], [ 19.1969294, 42.4095983 ], [ 19.1969816, 42.4095673 ], [ 19.1991855, 42.4093051 ], [ 19.199206, 42.4088966 ], [ 19.1993338, 42.4089048 ], [ 19.2019102, 42.4094692 ], [ 19.2036598, 42.4097448 ], [ 19.2037314, 42.4097932 ], [ 19.2053082, 42.4101905 ], [ 19.2056826, 42.410194 ], [ 19.2072408, 42.4106486 ], [ 19.2092281, 42.4106351 ], [ 19.2119406, 42.410455 ], [ 19.2121693, 42.4105967 ], [ 19.2125472, 42.410787 ], [ 19.2132461, 42.4111014 ], [ 19.2136848, 42.4113385 ], [ 19.2147207, 42.4116298 ], [ 19.2178455, 42.4118 ], [ 19.2179693, 42.4122257 ], [ 19.2181844, 42.4122846 ], [ 19.2187027, 42.4124404 ], [ 19.2190942, 42.4126779 ], [ 19.2197981, 42.412597 ], [ 19.2189747, 42.4109289 ], [ 19.2182136, 42.4085752 ], [ 19.2181967, 42.4063149 ], [ 19.2179575, 42.4021907 ], [ 19.2173611, 42.3987777 ], [ 19.2164145, 42.3968568 ], [ 19.2153163, 42.3953882 ], [ 19.2161897, 42.3949076 ], [ 19.2171941, 42.3946007 ], [ 19.2198946, 42.3937749 ], [ 19.2284258, 42.3916105 ], [ 19.2334597, 42.3904199 ], [ 19.2374766, 42.3900743 ], [ 19.2433155, 42.3883981 ], [ 19.2544605, 42.3851002 ], [ 19.2528318, 42.3814805 ], [ 19.2519623, 42.3790646 ], [ 19.2517343, 42.3781273 ], [ 19.2517126, 42.3779487 ], [ 19.2517211, 42.3778246 ], [ 19.2517639, 42.3777448 ], [ 19.252302, 42.3771251 ], [ 19.2525926, 42.3773501 ], [ 19.252947, 42.3774302 ], [ 19.2533515, 42.3776649 ], [ 19.25371, 42.3777665 ], [ 19.2540527, 42.3779867 ], [ 19.2545321, 42.3780151 ], [ 19.2548932, 42.378155 ], [ 19.2552949, 42.3782354 ], [ 19.2557845, 42.3781895 ], [ 19.256357, 42.3781058 ], [ 19.2569339, 42.3779155 ], [ 19.2575196, 42.3778308 ], [ 19.2600757, 42.377696 ], [ 19.2614303, 42.3778781 ], [ 19.2624584, 42.3780174 ], [ 19.2630346, 42.3780999 ], [ 19.263523, 42.3782119 ], [ 19.2639619, 42.3783222 ], [ 19.2652021, 42.3784551 ], [ 19.2654547, 42.3784702 ], [ 19.2656894, 42.3784146 ], [ 19.2667408, 42.3781328 ], [ 19.2672307, 42.3780592 ], [ 19.2678654, 42.3780761 ], [ 19.2689855, 42.378258 ], [ 19.2700034, 42.3784474 ], [ 19.2727253, 42.3792166 ], [ 19.2739116, 42.3793894 ], [ 19.2752873, 42.379515 ], [ 19.2759832, 42.3796988 ], [ 19.2766711, 42.3800485 ], [ 19.2775257, 42.3806536 ], [ 19.2782241, 42.3812974 ], [ 19.2786608, 42.3819072 ], [ 19.2777063, 42.3827226 ], [ 19.2778318, 42.3828108 ], [ 19.2775411, 42.3839334 ], [ 19.2775067, 42.3851945 ], [ 19.2778624, 42.387 ], [ 19.2779226, 42.3890701 ], [ 19.2778685, 42.3899549 ], [ 19.2779449, 42.3913039 ], [ 19.2783417, 42.3936277 ], [ 19.2784825, 42.3943514 ], [ 19.2782242, 42.3964509 ], [ 19.282275, 42.3997622 ], [ 19.2840072, 42.4009014 ], [ 19.2865334, 42.4021539 ], [ 19.2878235, 42.4027601 ], [ 19.2905129, 42.4045395 ], [ 19.2910457, 42.4043102 ], [ 19.2949514, 42.4067462 ], [ 19.2971719, 42.40989 ], [ 19.3024113, 42.4186386 ], [ 19.3050799, 42.4239426 ], [ 19.3052809, 42.4240175 ], [ 19.3066625, 42.423795 ], [ 19.3073096, 42.4237387 ], [ 19.3095088, 42.4232854 ], [ 19.3098715, 42.4244302 ], [ 19.3106307, 42.4242412 ], [ 19.3110775, 42.425565 ], [ 19.3111689, 42.4261589 ], [ 19.3112118, 42.4267337 ], [ 19.3114891, 42.4275909 ], [ 19.3121454, 42.4279727 ], [ 19.3125231, 42.4279813 ], [ 19.3127587, 42.4281075 ], [ 19.3129172, 42.4282817 ], [ 19.3130332, 42.428629 ], [ 19.313295, 42.4288128 ], [ 19.3135439, 42.4291897 ], [ 19.3137027, 42.4292341 ], [ 19.313737, 42.4294748 ], [ 19.313222, 42.4304441 ], [ 19.3128272, 42.4305074 ], [ 19.311986, 42.4307545 ], [ 19.3114625, 42.4307798 ], [ 19.3112221, 42.430631 ], [ 19.3109248, 42.4305879 ], [ 19.3107787, 42.4366228 ], [ 19.3113282, 42.4365177 ], [ 19.3116561, 42.4365529 ], [ 19.3122982, 42.4367136 ], [ 19.3127163, 42.4368662 ], [ 19.3135181, 42.4371584 ], [ 19.313861, 42.4373509 ], [ 19.3144095, 42.4374562 ], [ 19.3148248, 42.4377682 ], [ 19.3191514, 42.4387551 ], [ 19.3218968, 42.4388794 ], [ 19.325339, 42.4409481 ], [ 19.3268194, 42.4423499 ], [ 19.3274088, 42.4430722 ], [ 19.3280281, 42.4444933 ], [ 19.328068, 42.4454795 ], [ 19.3258553, 42.4465542 ], [ 19.3237109, 42.4484802 ], [ 19.3250653, 42.4494426 ], [ 19.3248968, 42.4498476 ], [ 19.324694, 42.4508481 ], [ 19.3257477, 42.4511892 ], [ 19.3245623, 42.4527478 ], [ 19.324744, 42.4532777 ], [ 19.324303, 42.4536586 ], [ 19.3241293, 42.4544853 ], [ 19.32577, 42.455125 ], [ 19.3261636, 42.4553387 ], [ 19.3267991, 42.4554768 ], [ 19.3285306, 42.4559611 ], [ 19.3283877, 42.4568531 ], [ 19.328962, 42.4568984 ], [ 19.3292817, 42.4569811 ], [ 19.3295429, 42.4570301 ], [ 19.3296059, 42.4571681 ], [ 19.3295579, 42.4573451 ], [ 19.3299368, 42.4576056 ], [ 19.330111, 42.4578442 ], [ 19.3300822, 42.457967 ], [ 19.3306031, 42.4579671 ], [ 19.331538, 42.4580815 ], [ 19.3313337, 42.4592234 ], [ 19.3310249, 42.4597505 ], [ 19.3314412, 42.4599163 ], [ 19.3314813, 42.4612435 ], [ 19.3298282, 42.4626566 ], [ 19.3268849, 42.4628552 ], [ 19.3261607, 42.4627142 ], [ 19.3246765, 42.4627696 ], [ 19.3235557, 42.4636329 ], [ 19.323579, 42.4647491 ], [ 19.3232784, 42.4661596 ], [ 19.3211585, 42.4679577 ], [ 19.3209488, 42.4701861 ], [ 19.3189617, 42.4721239 ], [ 19.3191151, 42.4732365 ], [ 19.3185423, 42.473811 ], [ 19.3187949, 42.474219 ], [ 19.3188291, 42.4760087 ], [ 19.316456, 42.4779542 ], [ 19.3169031, 42.4791475 ], [ 19.3166355, 42.4799197 ], [ 19.3165106, 42.4807962 ], [ 19.3156655, 42.4814173 ], [ 19.315057, 42.4819656 ], [ 19.3143952, 42.4820749 ], [ 19.3131142, 42.4826128 ], [ 19.3124611, 42.4820394 ], [ 19.3118779, 42.482036 ], [ 19.3115635, 42.4814871 ], [ 19.3100683, 42.4813167 ], [ 19.309638, 42.4801137 ], [ 19.3066287, 42.4790663 ], [ 19.3040322, 42.4788099 ], [ 19.3039958, 42.4797221 ], [ 19.3044846, 42.4805601 ], [ 19.3053182, 42.4812342 ], [ 19.3053452, 42.4816301 ], [ 19.3071382, 42.483143 ], [ 19.3096789, 42.4848388 ], [ 19.3104462, 42.4856774 ], [ 19.3105326, 42.4871657 ], [ 19.3098059, 42.4884097 ], [ 19.3088881, 42.4894888 ], [ 19.3091418, 42.4900872 ], [ 19.3082853, 42.4904325 ], [ 19.3078459, 42.491101 ], [ 19.3078172, 42.4919717 ], [ 19.3066505, 42.4922712 ], [ 19.3025666, 42.4960625 ], [ 19.2993577, 42.4960062 ], [ 19.2951188, 42.4950133 ], [ 19.2908181, 42.495176 ], [ 19.2875818, 42.4946805 ], [ 19.2816195, 42.4922308 ], [ 19.2812074, 42.491964 ], [ 19.2795159, 42.4888477 ], [ 19.2781887, 42.4885876 ], [ 19.2778055, 42.4879723 ], [ 19.2759728, 42.4887903 ], [ 19.2753236, 42.4882183 ], [ 19.2754373, 42.4879282 ], [ 19.2751605, 42.4874934 ], [ 19.2747334, 42.4876663 ], [ 19.2744101, 42.4873714 ], [ 19.2740391, 42.4875735 ], [ 19.2736907, 42.4873071 ], [ 19.2735091, 42.4873763 ], [ 19.2732005, 42.4870917 ], [ 19.273385, 42.4869504 ], [ 19.2721546, 42.4857904 ], [ 19.2711767, 42.4862882 ], [ 19.2712457, 42.4866814 ], [ 19.2708759, 42.486926 ], [ 19.2712114, 42.4873479 ], [ 19.2709651, 42.4874354 ], [ 19.2699185, 42.4865617 ], [ 19.2696301, 42.4865378 ], [ 19.269443, 42.486124 ], [ 19.2687934, 42.4860433 ], [ 19.268789, 42.4855987 ], [ 19.2683484, 42.4855483 ], [ 19.2682345, 42.4849504 ], [ 19.2670079, 42.4850573 ], [ 19.2662744, 42.4843938 ], [ 19.2654294, 42.4845945 ], [ 19.2659262, 42.4856611 ], [ 19.265429, 42.4857898 ], [ 19.2651839, 42.485578 ], [ 19.2647681, 42.485718 ], [ 19.2652488, 42.4862553 ], [ 19.2648576, 42.4864199 ], [ 19.2659477, 42.4878146 ], [ 19.265467, 42.4879218 ], [ 19.2646916, 42.4869164 ], [ 19.264529, 42.4869359 ], [ 19.2635117, 42.4858583 ], [ 19.2629172, 42.4860694 ], [ 19.2625946, 42.4857012 ], [ 19.2621773, 42.4858338 ], [ 19.2618647, 42.4855117 ], [ 19.2615363, 42.485573 ], [ 19.2613227, 42.4852761 ], [ 19.2605352, 42.4857846 ], [ 19.2613214, 42.4865858 ], [ 19.2610579, 42.4868012 ], [ 19.2598344, 42.4855382 ], [ 19.259369, 42.4857665 ], [ 19.2606128, 42.4869884 ], [ 19.259452, 42.4878431 ], [ 19.2591609, 42.4875058 ], [ 19.2584537, 42.4878225 ], [ 19.2589711, 42.4885553 ], [ 19.258556, 42.4887363 ], [ 19.2591804, 42.4897206 ], [ 19.2579054, 42.4901219 ], [ 19.2570358, 42.4888183 ], [ 19.2566904, 42.4889159 ], [ 19.2558927, 42.487902 ], [ 19.2552738, 42.488124 ], [ 19.2547228, 42.4875246 ], [ 19.2553524, 42.4871566 ], [ 19.2550615, 42.4867501 ], [ 19.2518387, 42.487686 ], [ 19.2507351, 42.4886419 ], [ 19.2484345, 42.4883812 ], [ 19.2468606, 42.4878783 ], [ 19.2459984, 42.4873943 ], [ 19.2451673, 42.486735 ], [ 19.2442705, 42.4858672 ], [ 19.2431563, 42.4867491 ], [ 19.2422314, 42.485908 ], [ 19.2410502, 42.486761 ], [ 19.2412125, 42.4875326 ], [ 19.2415494, 42.4881046 ], [ 19.2406442, 42.488802 ], [ 19.2393315, 42.4895732 ], [ 19.2386892, 42.4888467 ], [ 19.2393074, 42.4883717 ], [ 19.2387939, 42.4875487 ], [ 19.2374661, 42.4883093 ], [ 19.2384288, 42.4895761 ], [ 19.2368219, 42.4905095 ], [ 19.2365566, 42.4900842 ], [ 19.2352272, 42.490376 ], [ 19.2350066, 42.4899518 ], [ 19.2340434, 42.4889695 ], [ 19.2343729, 42.4888408 ], [ 19.2336484, 42.4879164 ], [ 19.235011, 42.4872436 ], [ 19.2359896, 42.4863852 ], [ 19.2373047, 42.4852773 ], [ 19.2386536, 42.4844958 ], [ 19.2356533, 42.4812571 ], [ 19.232634, 42.4806437 ], [ 19.2327903, 42.4797668 ], [ 19.2326083, 42.4788132 ], [ 19.2334694, 42.4786457 ], [ 19.233861, 42.4778782 ], [ 19.2348611, 42.4772522 ], [ 19.2352008, 42.4767833 ], [ 19.2366966, 42.475837 ], [ 19.234355, 42.4738592 ], [ 19.2348777, 42.4734615 ], [ 19.2338624, 42.4714889 ], [ 19.2283338, 42.4700001 ], [ 19.2264478, 42.4689779 ], [ 19.2276882, 42.4670346 ], [ 19.2261447, 42.4658014 ], [ 19.223254, 42.4662434 ], [ 19.2181129, 42.4661488 ], [ 19.2127103, 42.4682832 ], [ 19.2007914, 42.4764885 ], [ 19.2007328, 42.4764737 ], [ 19.2002669, 42.4763561 ], [ 19.2002447, 42.4763505 ], [ 19.1986559, 42.4759494 ], [ 19.1973734, 42.4753593 ], [ 19.1961072, 42.4746287 ], [ 19.1954785, 42.4744949 ], [ 19.1935131, 42.4739119 ], [ 19.193131, 42.4737755 ], [ 19.1916191, 42.4730895 ], [ 19.1915532, 42.4731082 ], [ 19.1914353, 42.4731461 ], [ 19.1913468, 42.4731016 ], [ 19.1913621, 42.4729847 ], [ 19.1912479, 42.4729761 ], [ 19.1910045, 42.4728619 ], [ 19.1907351, 42.4728744 ], [ 19.1906176, 42.4730411 ], [ 19.1904065, 42.4730108 ], [ 19.1901455, 42.4728903 ], [ 19.1900858, 42.4727482 ], [ 19.1900701, 42.4726153 ], [ 19.1900274, 42.4726191 ], [ 19.1899869, 42.4726227 ], [ 19.1899764, 42.472588 ], [ 19.1899749, 42.472583 ], [ 19.1899682, 42.4725612 ], [ 19.1899011, 42.4724905 ], [ 19.1896556, 42.4723918 ], [ 19.1895677, 42.472383 ], [ 19.1894359, 42.4723714 ], [ 19.1893388, 42.4723367 ], [ 19.1888934, 42.4722083 ], [ 19.1884532, 42.4721221 ], [ 19.1881306, 42.4719924 ], [ 19.187765, 42.4719054 ], [ 19.1874176, 42.4718571 ], [ 19.1871865, 42.4719243 ], [ 19.1869425, 42.472008 ], [ 19.1868503, 42.472007 ], [ 19.1867758, 42.4720002 ], [ 19.1866653, 42.4719854 ], [ 19.1865112, 42.471688 ], [ 19.1864473, 42.4713671 ], [ 19.1867016, 42.4708168 ], [ 19.1866385, 42.4705447 ], [ 19.186511, 42.4702006 ], [ 19.1862862, 42.4701482 ], [ 19.1857707, 42.4699099 ], [ 19.1858267, 42.4696833 ], [ 19.1856744, 42.469463 ], [ 19.185786, 42.4687034 ], [ 19.1859139, 42.4684208 ], [ 19.18609, 42.4683707 ], [ 19.1865402, 42.4682162 ], [ 19.1868711, 42.4678935 ], [ 19.1869056, 42.4673746 ], [ 19.1874157, 42.4671336 ], [ 19.187297, 42.4657116 ], [ 19.1875135, 42.4650288 ], [ 19.1878386, 42.4647016 ], [ 19.1876857, 42.4644741 ], [ 19.1875003, 42.4641365 ], [ 19.1868185, 42.4639205 ], [ 19.1864143, 42.4634215 ], [ 19.1860464, 42.4622993 ], [ 19.1857709, 42.461862 ], [ 19.1853487, 42.4617566 ], [ 19.1852581, 42.4615361 ], [ 19.1854859, 42.4612783 ], [ 19.1847396, 42.4611046 ], [ 19.1847382, 42.4606955 ], [ 19.1845049, 42.4605218 ], [ 19.184522, 42.4601203 ], [ 19.18358, 42.4597449 ], [ 19.1817483, 42.4588762 ] ] ] } }
]
}
